SatCatId,ObjectName,LaunchYear,OrbitalPeriod,LaunchMass,StatusCode,Inclination,Status,UcsData,OrbitClassEstimated,LaunchSiteCountry,Owner,UseType,Purpose,LaunchVehicleClass,TLE1,TLE2,MeanMotion,Eccentricity,OrbitClass
48392,STARLINK-2605,2021,95.59,260.0,+,53.05,Active,1,LEO,USA,USA,Commercial,Communications,Falcon,1 48392U 21038AR  25170.17366115  .00000122  00000+0  27060-4 0  9998,2 48392  53.0510  84.5891 0001464  73.8392 286.2758 15.06394163228800,15.06394163,0.0001464,LEO
48395,STARLINK-2574,2021,95.59,260.0,+,53.06,Active,1,LEO,USA,USA,Commercial,Communications,Falcon,1 48395U 21038AU  25170.47597456 -.00003789  00000+0 -23545-3 0  9995,2 48395  53.0577  83.8561 0001529  92.6779 267.4385 15.06420849228844,15.06420849,0.0001529,LEO
48396,STARLINK-2575,2021,95.59,260.0,+,53.06,Active,1,LEO,USA,USA,Commercial,Communications,Falcon,1 48396U 21038AV  25170.16260593 -.00000800  00000+0 -34798-4 0  9995,2 48396  53.0575  84.6348 0001371  93.2658 266.8487 15.06396047228807,15.06396047,0.0001371,LEO
48397,STARLINK-2590,2021,95.59,260.0,+,53.06,Active,1,LEO,USA,USA,Commercial,Communications,Falcon,1 48397U 21038AW  25170.49063886  .00003285  00000+0  23923-3 0  9993,2 48397  53.0548  83.1627 0001387  88.9604 271.1544 15.06414121228853,15.06414121,0.0001387,LEO
48398,STARLINK-2588,2021,95.59,260.0,+,53.06,Active,1,LEO,USA,USA,Commercial,Communications,Falcon,1 48398U 21038AX  25170.48696214  .00000140  00000+0  28317-4 0  9990,2 48398  53.0556  83.1793 0001298  92.1171 267.9966 15.06399015228859,15.06399015,0.0001298,LEO
48399,STARLINK-2587,2021,95.59,260.0,+,53.06,Active,1,LEO,USA,USA,Commercial,Communications,Falcon,1 48399U 21038AY  25170.48328075 -.00000412  00000+0 -88007-5 0  9995,2 48399  53.0561  83.1958 0001339  88.9651 271.1492 15.06395370228841,15.0639537,0.0001339,LEO
48400,STARLINK-2576,2021,95.59,260.0,+,53.06,Active,1,LEO,USA,USA,Commercial,Communications,Falcon,1 48400U 21038AZ  25170.47958934  .00001321  00000+0  10758-3 0  9994,2 48400  53.0553  83.2122 0001480  90.8626 269.2533 15.06397053227630,15.06397053,0.000148,LEO
48401,STARLINK-2571,2021,95.59,260.0,+,53.05,Active,1,LEO,USA,USA,Commercial,Communications,Falcon,1 48401U 21038BA  25170.18472117  .00000295  00000+0  38740-4 0  9998,2 48401  53.0519  84.5462 0001498  90.1267 269.9893 15.06385702227585,15.06385702,0.0001498,LEO
48404,STARLINK-2593,2021,95.59,260.0,+,53.05,Active,1,LEO,USA,USA,Commercial,Communications,Falcon,1 48404U 21038BD  25170.46852803 -.00001003  00000+0 -48473-4 0  9990,2 48404  53.0544  83.2637 0001137 101.2762 258.8354 15.06403701227635,15.06403701,0.0001137,LEO
48405,STARLINK-2570,2021,95.59,260.0,+,53.05,Active,1,LEO,USA,USA,Commercial,Communications,Falcon,1 48405U 21038BE  25170.46485585  .00000173  00000+0  30541-4 0  9992,2 48405  53.0549  83.2803 0001497  89.2690 270.8470 15.06400588227633,15.06400588,0.0001497,LEO
48406,STARLINK-2568,2021,95.59,260.0,+,53.05,Active,1,LEO,USA,USA,Commercial,Communications,Falcon,1 48406U 21038BF  25170.12942878 -.00001077  00000+0 -53398-4 0  9990,2 48406  53.0534  84.7846 0001491  89.1304 270.9856 15.06393288227587,15.06393288,0.0001491,LEO
48407,STARLINK-2595,2021,93.53,260.0,P,53.05,Active,1,LEO,USA,USA,Commercial,Communications,Falcon,1 48407U 21038BG  25170.08931894  .00038166  00000+0  96118-3 0  9995,2 48407  53.0500  53.6858 0001420 177.8515 182.2495 15.39559767228015,15.39559767,0.000142,LEO
48408,STARLINK-2592,2021,95.59,260.0,+,53.06,Active,1,LEO,USA,USA,Commercial,Communications,Falcon,1 48408U 21038BH  25170.45378020  .00000985  00000+0  85029-4 0  9991,2 48408  53.0554  83.3310 0001708  87.2156 272.9029 15.06393397227627,15.06393397,0.0001708,LEO
48410,STARLINK-2563,2021,95.59,260.0,+,53.06,Active,1,LEO,USA,USA,Commercial,Communications,Falcon,1 48410U 21038BK  25170.01747134  .00000709  00000+0  66480-4 0  9996,2 48410  53.0559  40.2912 0001309  89.2390 270.8749 15.06401835228202,15.06401835,0.0001309,LEO
48411,STARLINK-2505,2021,95.59,260.0,+,53.05,Active,1,LEO,USA,USA,Commercial,Communications,Falcon,1 48411U 21038BL  25170.03451766  .00001695  00000+0  13265-3 0  9999,2 48411  53.0550  35.2120 0001142  82.8041 277.3078 15.06397506228279,15.06397506,0.0001142,LEO
48412,STARLINK-2581,2021,95.59,260.0,+,53.05,Active,1,LEO,USA,USA,Commercial,Communications,Falcon,1 48412U 21038BM  25169.92030402  .00003346  00000+0  24335-3 0  9991,2 48412  53.0546  36.1523 0001387  89.2265 270.8883 15.06409956228255,15.06409956,0.0001387,LEO
48423,YAOGAN-30 09A,2021,96.0,-1.0,+,35.0,Active,1,LEO,PRC,China,Military,Earth Observation,Long March,1 48423U 21039A   25170.82863872  .00002339  00000+0  18642-3 0  9995,2 48423  34.9977  75.8029 0003133 150.7370 209.3514 15.00042620225065,15.0004262,0.0003133,LEO
48424,YAOGAN-30 09B,2021,96.0,-1.0,+,35.0,Active,1,LEO,PRC,China,Military,Earth Observation,Long March,1 48424U 21039B   25170.87174515  .00002267  00000+0  18064-3 0  9998,2 48424  34.9959  75.0109 0005835 258.4021 101.6031 15.00054540225070,15.0005454,0.0005835,LEO
48425,YAOGAN-30 09C,2021,96.0,-1.0,+,35.0,Active,1,LEO,PRC,China,Military,Earth Observation,Long March,1 48425U 21039C   25170.84961528  .00002360  00000+0  18793-3 0  9997,2 48425  34.9957  74.8209 0002501 196.6566 163.4060 15.00073404225080,15.00073404,0.0002501,LEO
48426,TIANQI-12,2021,95.57,50.0,+,35.0,Active,1,LEO,PRC,China,Commercial,Technology Development,Long March,1 48426U 21039D   25170.85801560  .00004252  00000+0  28153-3 0  9991,2 48426  35.0016  37.2519 0005237 324.3957  35.6403 15.06787263225463,15.06787263,0.0005237,LEO
48428,STARLINK-2461,2021,95.59,260.0,+,53.06,Active,1,LEO,USA,USA,Commercial,Communications,Falcon,1 48428U 21040A   25170.32615197  .00002121  00000+0  16118-3 0  9997,2 48428  53.0551 288.9025 0001288  89.2326 270.8811 15.06412956226860,15.06412956,0.0001288,LEO
48431,STARLINK-2700,2021,95.59,260.0,+,53.06,Active,1,LEO,USA,USA,Commercial,Communications,Falcon,1 48431U 21040D   25170.20864163  .00000306  00000+0  39454-4 0  9999,2 48431  53.0551 254.4306 0001299 103.7117 256.4016 15.06402074227336,15.06402074,0.0001299,LEO
48432,STARLINK-2680,2021,95.59,260.0,+,53.05,Active,1,LEO,USA,USA,Commercial,Communications,Falcon,1 48432U 21040E   25170.25617592  .00001734  00000+0  13526-3 0  9994,2 48432  53.0539 249.6155 0001371  95.7116 264.4029 15.06396871227409,15.06396871,0.0001371,LEO
48433,STARLINK-2699,2021,95.59,260.0,+,53.05,Active,1,LEO,USA,USA,Commercial,Communications,Falcon,1 48433U 21040F   25170.53397996  .00001088  00000+0  91914-4 0  9999,2 48433  53.0539 253.2523 0001329 100.9079 259.2060 15.06405021227371,15.06405021,0.0001329,LEO
48434,STARLINK-2692,2021,95.59,260.0,+,53.05,Active,1,LEO,USA,USA,Commercial,Communications,Falcon,1 48434U 21040G   25170.49854102  .00003347  00000+0  24343-3 0  9993,2 48434  53.0537 258.6394 0001302  86.1875 273.9263 15.06407411227301,15.06407411,0.0001302,LEO
48435,STARLINK-2633,2021,95.59,260.0,+,53.05,Active,1,LEO,USA,USA,Commercial,Communications,Falcon,1 48435U 21040H   25170.57127409  .00001492  00000+0  11906-3 0  9996,2 48435  53.0543 267.8118 0001357  99.1251 260.9891 15.06400635227176,15.06400635,0.0001357,LEO
48436,STARLINK-2639,2021,95.59,260.0,+,53.06,Active,1,LEO,USA,USA,Commercial,Communications,Falcon,1 48436U 21040J   25169.63182052 -.00000937  00000+0 -44036-4 0  9993,2 48436  53.0559 287.0227 0001268  93.4193 266.6941 15.06394039227272,15.06394039,0.0001268,LEO
48437,STARLINK-2642,2021,95.59,260.0,+,53.05,Active,1,LEO,USA,USA,Commercial,Communications,Falcon,1 48437U 21040K   25170.61135386  .00000565  00000+0  56788-4 0  9994,2 48437  53.0544 292.6237 0001356  96.0261 264.0883 15.06409329226830,15.06409329,0.0001356,LEO
48438,STARLINK-2640,2021,95.59,260.0,+,53.05,Active,1,LEO,USA,USA,Commercial,Communications,Falcon,1 48438U 21040L   25169.58761843  .00002244  00000+0  16945-3 0  9998,2 48438  53.0544 287.4876 0001334  94.1778 265.9363 15.06403934226817,15.06403934,0.0001334,LEO
48439,STARLINK-2583,2021,95.59,260.0,+,53.05,Active,1,LEO,USA,USA,Commercial,Communications,Falcon,1 48439U 21040M   25170.35425578  .00003566  00000+0  25816-3 0  9993,2 48439  53.0545 283.7756 0001281 101.9652 258.1480 15.06403574226931,15.06403574,0.0001281,LEO
48440,STARLINK-2682,2021,95.59,260.0,+,53.06,Active,1,LEO,USA,USA,Commercial,Communications,Falcon,1 48440U 21040N   25170.61596265  .00003933  00000+0  28277-3 0  9998,2 48440  53.0558 282.6039 0001303 103.2961 256.8174 15.06401912226975,15.06401912,0.0001303,LEO
48441,STARLINK-2702,2021,95.59,260.0,+,53.05,Active,1,LEO,USA,USA,Commercial,Communications,Falcon,1 48441U 21040P   25170.01515762 -.00004234  00000+0 -26562-3 0  9998,2 48441  53.0539 285.3010 0001248  89.2899 270.8233 15.06384812226886,15.06384812,0.0001248,LEO
48442,STARLINK-2644,2021,95.59,260.0,+,53.05,Active,1,LEO,USA,USA,Commercial,Communications,Falcon,1 48442U 21040Q   25170.60858822  .00004879  00000+0  34617-3 0  9994,2 48442  53.0542 282.6311 0001365  89.6489 270.4657 15.06406657226972,15.06406657,0.0001365,LEO
48443,STARLINK-2663,2021,95.59,260.0,+,53.06,Active,1,LEO,USA,USA,Commercial,Communications,Falcon,1 48443U 21040R   25170.60489883 -.00000550  00000+0 -18037-4 0  9995,2 48443  53.0551 282.6532 0001207  93.4669 266.6458 15.06408290228250,15.0640829,0.0001207,LEO
48444,STARLINK-2645,2021,95.59,260.0,+,53.05,Active,1,LEO,USA,USA,Commercial,Communications,Falcon,1 48444U 21040S   25170.60121307 -.00002736  00000+0 -16490-3 0  9998,2 48444  53.0525 282.6682 0001224 105.4431 254.6693 15.06396401228256,15.06396401,0.0001224,LEO
48445,STARLINK-2634,2021,95.59,260.0,+,53.06,Active,1,LEO,USA,USA,Commercial,Communications,Falcon,1 48445U 21040T   25170.59753175  .00003716  00000+0  26815-3 0  9990,2 48445  53.0564 282.6849 0001482  98.6022 261.5135 15.06407012226976,15.06407012,0.0001482,LEO
